{"type": "FeatureCollection", "features": [ {"type": "Feature", "properties": {"norad_id": 40664, "name": "SKY MEXICO-1", "group": "intelsat", "lat": 0.04142543364498182, "lon": 51.44698536060644, "alt_km": 35796.12686346584, "timestamp": "2025-12-04T03:47:54.221824+00:00", "meta": {"OBJECT_NAME": "SKY MEXICO-1", "OBJECT_ID": "2015-026B", "EPOCH": "2025-12-03T13:22:52.871232", "MEAN_MOTION": 1.00270473, "ECCENTRICITY": 0.0002774, "INCLINATION": 0.0171, "RA_OF_ASC_NODE": 337.602, "ARG_OF_PERICENTER": 288.9303, "MEAN_ANOMALY": 288.0745, "EPHEMERIS_TYPE": 0, "CLASSIFICATION_TYPE": "U", "NORAD_CAT_ID": 40664, "ELEMENT_SET_NO": 999, "REV_AT_EPOCH": 3849, "BSTAR": 0, "MEAN_MOTION_DOT": -2.16e-06, "MEAN_MOTION_DDOT": 0}, "tle": {"line1": "1 40664U 15026B   25337.55755638 -.00000216  00000+0  00000+0 0  9996", "line2": "2 40664   0.0171 337.6020 0002774 288.9303 288.0745  1.00270473 38497"}}, "geometry": {"type": "Point", "coordinates": [51.44698536060644, 0.04142543364498182]}}, {"type": "Feature", "properties": {"norad_id": 40874, "name": "INTELSAT 34 (IS-34)", "group": "intelsat", "lat": 0.030455084436589057, "lon": 74.68112707051755, "alt_km": 35786.80504559212, "timestamp": "2025-12-04T03:47:54.221835+00:00", "meta": {"OBJECT_NAME": "INTELSAT 34 (IS-34)", "OBJECT_ID": "2015-039A", "EPOCH": "2025-12-03T16:54:58.080960", "MEAN_MOTION": 1.00270117, "ECCENTRICITY": 5.14e-05, "INCLINATION": 0.0121, "RA_OF_ASC_NODE": 303.8386, "ARG_OF_PERICENTER": 226.1914, "MEAN_ANOMALY": 101.0018, "EPHEMERIS_TYPE": 0, "CLASSIFICATION_TYPE": "U", "NORAD_CAT_ID": 40874, "ELEMENT_SET_NO": 999, "REV_AT_EPOCH": 3766, "BSTAR": 0, "MEAN_MOTION_DOT": -2.68e-06, "MEAN_MOTION_DDOT": 0}, "tle": {"line1": "1 40874U 15039A   25337.70483890 -.00000268  00000+0  00000+0 0  9995", "line2": "2 40874   0.0121 303.8386 0000514 226.1914 101.0018  1.00270117 37667"}}, "geometry": {"type": "Point", "coordinates": [74.68112707051755, 0.030455084436589057]}}, {"type": "Feature", "properties": {"norad_id": 41581, "name": "INTELSAT 31 (IS-31)", "group": "intelsat", "lat": 0.03183155945080948, "lon": 35.13470271787056, "alt_km": 35795.45141534437, "timestamp": "2025-12-04T03:47:54.221847+00:00", "meta": {"OBJECT_NAME": "INTELSAT 31 (IS-31)", "OBJECT_ID": "2016-035A", "EPOCH": "2025-12-03T13:18:15.813216", "MEAN_MOTION": 1.0027005, "ECCENTRICITY": 0.0002099, "INCLINATION": 0.0165, "RA_OF_ASC_NODE": 271.6332, "ARG_OF_PERICENTER": 305.8436, "MEAN_ANOMALY": 319.6781, "EPHEMERIS_TYPE": 0, "CLASSIFICATION_TYPE": "U", "NORAD_CAT_ID": 41581, "ELEMENT_SET_NO": 999, "REV_AT_EPOCH": 3472, "BSTAR": 0, "MEAN_MOTION_DOT": -1.33e-06, "MEAN_MOTION_DDOT": 0}, "tle": {"line1": "1 41581U 16035A   25337.55434969 -.00000133  00000+0  00000+0 0  9995", "line2": "2 41581   0.0165 271.6332 0002099 305.8436 319.6781  1.00270050 34722"}}, "geometry": {"type": "Point", "coordinates": [35.13470271787056, 0.03183155945080948]}}, {"type": "Feature", "properties": {"norad_id": 41747, "name": "INTELSAT 36 (IS-36)", "group": "intelsat", "lat": -0.019064847065862242, "lon": -161.32501843500864, "alt_km": 35789.939154831256, "timestamp": "2025-12-04T03:47:54.221859+00:00", "meta": {"OBJECT_NAME": "INTELSAT 36 (IS-36)", "OBJECT_ID": "2016-053A", "EPOCH": "2025-12-03T20:09:58.164192", "MEAN_MOTION": 1.00268515, "ECCENTRICITY": 0.0001517, "INCLINATION": 0.0123, "RA_OF_ASC_NODE": 0.9905, "ARG_OF_PERICENTER": 315.4282, "MEAN_ANOMALY": 127.5011, "EPHEMERIS_TYPE": 0, "CLASSIFICATION_TYPE": "U", "NORAD_CAT_ID": 41747, "ELEMENT_SET_NO": 999, "REV_AT_EPOCH": 3399, "BSTAR": 0, "MEAN_MOTION_DOT": -7e-08, "MEAN_MOTION_DDOT": 0}, "tle": {"line1": "1 41747U 16053A   25337.84025653 -.00000007  00000+0  00000+0 0  9997", "line2": "2 41747   0.0123   0.9905 0001517 315.4282 127.5011  1.00268515 33992"}}, "geometry": {"type": "Point", "coordinates": [-161.32501843500864, -0.019064847065862242]}}, {"type": "Feature", "properties": {"norad_id": 41945, "name": "INTELSAT 32E (IS-32E)", "group": "intelsat", "lat": 0.02270862924051507, "lon": 87.01607947107473, "alt_km": 35786.891060145645, "timestamp": "2025-12-04T03:47:54.221870+00:00", "meta": {"OBJECT_NAME": "INTELSAT 32E (IS-32E)", "OBJECT_ID": "2017-007B", "EPOCH": "2025-12-03T08:24:51.420096", "MEAN_MOTION": 1.00269596, "ECCENTRICITY": 1.84e-05, "INCLINATION": 0.029, "RA_OF_ASC_NODE": 67.4316, "ARG_OF_PERICENTER": 280.9577, "MEAN_ANOMALY": 167.0963, "EPHEMERIS_TYPE": 0, "CLASSIFICATION_TYPE": "U", "NORAD_CAT_ID": 41945, "ELEMENT_SET_NO": 999, "REV_AT_EPOCH": 3226, "BSTAR": 0, "MEAN_MOTION_DOT": -2.5e-06, "MEAN_MOTION_DDOT": 0}, "tle": {"line1": "1 41945U 17007B   25337.35059514 -.00000250  00000+0  00000+0 0  9996", "line2": "2 41945   0.0290  67.4316 0000184 280.9577 167.0963  1.00269596 32267"}}, "geometry": {"type": "Point", "coordinates": [87.01607947107473, 0.02270862924051507]}}, {"type": "Feature", "properties": {"norad_id": 42818, "name": "INTELSAT 35E (IS-35E)", "group": "intelsat", "lat": 0.025642305514258525, "lon": 95.70146870771764, "alt_km": 35796.179960564405, "timestamp": "2025-12-04T03:47:54.221882+00:00", "meta": {"OBJECT_NAME": "INTELSAT 35E (IS-35E)", "OBJECT_ID": "2017-041A", "EPOCH": "2025-12-03T17:00:57.508416", "MEAN_MOTION": 1.00270769, "ECCENTRICITY": 0.0002427, "INCLINATION": 0.0092, "RA_OF_ASC_NODE": 324.1753, "ARG_OF_PERICENTER": 293.4784, "MEAN_ANOMALY": 35.9019, "EPHEMERIS_TYPE": 0, "CLASSIFICATION_TYPE": "U", "NORAD_CAT_ID": 42818, "ELEMENT_SET_NO": 999, "REV_AT_EPOCH": 3085, "BSTAR": 0, "MEAN_MOTION_DOT": -2.2e-06, "MEAN_MOTION_DDOT": 0}, "tle": {"line1": "1 42818U 17041A   25337.70899894 -.00000220  00000+0  00000+0 0  9993", "line2": "2 42818   0.0092 324.1753 0002427 293.4784  35.9019  1.00270769 30858"}}, "geometry": {"type": "Point", "coordinates": [95.70146870771764, 0.025642305514258525]}}, {"type": "Feature", "properties": {"norad_id": 42950, "name": "INTELSAT 37E (IS-37E)", "group": "intelsat", "lat": 0.01921484621105986, "lon": 112.16737582837852, "alt_km": 35796.739550163606, "timestamp": "2025-12-04T03:47:54.221893+00:00", "meta": {"OBJECT_NAME": "INTELSAT 37E (IS-37E)", "OBJECT_ID": "2017-059A", "EPOCH": "2025-12-03T17:05:42.052992", "MEAN_MOTION": 1.0027079, "ECCENTRICITY": 0.000345, "INCLINATION": 0.0169, "RA_OF_ASC_NODE": 317.8886, "ARG_OF_PERICENTER": 289.3814, "MEAN_ANOMALY": 63.9596, "EPHEMERIS_TYPE": 0, "CLASSIFICATION_TYPE": "U", "NORAD_CAT_ID": 42950, "ELEMENT_SET_NO": 999, "REV_AT_EPOCH": 3010, "BSTAR": 0, "MEAN_MOTION_DOT": -1.23e-06, "MEAN_MOTION_DDOT": 0}, "tle": {"line1": "1 42950U 17059A   25337.71229228 -.00000123  00000+0  00000+0 0  9990", "line2": "2 42950   0.0169 317.8886 0003450 289.3814  63.9596  1.00270790 30104"}}, "geometry": {"type": "Point", "coordinates": [112.16737582837852, 0.01921484621105986]}}, {"type": "Feature", "properties": {"norad_id": 43632, "name": "AZERSPACE 2 (IS-38)", "group": "intelsat", "lat": -0.01289691715944088, "lon": 175.2825618962795, "alt_km": 35785.26534530969, "timestamp": "2025-12-04T03:47:54.221905+00:00", "meta": {"OBJECT_NAME": "AZERSPACE 2 (IS-38)", "OBJECT_ID": "2018-074A", "EPOCH": "2025-12-03T17:23:40.331040", "MEAN_MOTION": 1.0027174, "ECCENTRICITY": 0.0001742, "INCLINATION": 0.0176, "RA_OF_ASC_NODE": 347.6047, "ARG_OF_PERICENTER": 271.7152, "MEAN_ANOMALY": 119.5202, "EPHEMERIS_TYPE": 0, "CLASSIFICATION_TYPE": "U", "NORAD_CAT_ID": 43632, "ELEMENT_SET_NO": 999, "REV_AT_EPOCH": 2648, "BSTAR": 0, "MEAN_MOTION_DOT": 1.54e-06, "MEAN_MOTION_DDOT": 0}, "tle": {"line1": "1 43632U 18074A   25337.72477235  .00000154  00000+0  00000+0 0  9993", "line2": "2 43632   0.0176 347.6047 0001742 271.7152 119.5202  1.00271740 26486"}}, "geometry": {"type": "Point", "coordinates": [175.2825618962795, -0.01289691715944088]}}, {"type": "Feature", "properties": {"norad_id": 43633, "name": "HORIZONS-3E", "group": "intelsat", "lat": 0.00594885379491147, "lon": -60.79540207873443, "alt_km": 35782.43057668084, "timestamp": "2025-12-04T03:47:54.221916+00:00", "meta": {"OBJECT_NAME": "HORIZONS-3E", "OBJECT_ID": "2018-074B", "EPOCH": "2025-12-02T09:32:38.562720", "MEAN_MOTION": 1.00268601, "ECCENTRICITY": 0.00010808, "INCLINATION": 0.0303, "RA_OF_ASC_NODE": 208.778, "ARG_OF_PERICENTER": 80.6678, "MEAN_ANOMALY": 94.2479, "EPHEMERIS_TYPE": 0, "CLASSIFICATION_TYPE": "U", "NORAD_CAT_ID": 43633, "ELEMENT_SET_NO": 999, "REV_AT_EPOCH": 2636, "BSTAR": 0, "MEAN_MOTION_DOT": -1e-07, "MEAN_MOTION_DDOT": 0}, "tle": {"line1": "1 43633U 18074B   25336.39766855 -.00000010  00000+0  00000+0 0  9997", "line2": "2 43633   0.0303 208.7780 0001080  80.6678  94.2479  1.00268601 26369"}}, "geometry": {"type": "Point", "coordinates": [-60.79540207873443, 0.00594885379491147]}}, {"type": "Feature", "properties": {"norad_id": 44333, "name": "AT&T T-16", "group": "intelsat", "lat": 0.007245222787381612, "lon": 29.317552965516605, "alt_km": 35788.356596239806, "timestamp": "2025-12-04T03:47:54.221928+00:00", "meta": {"OBJECT_NAME": "AT&T T-16", "OBJECT_ID": "2019-034A", "EPOCH": "2025-12-03T13:16:30.979776", "MEAN_MOTION": 1.00268492, "ECCENTRICITY": 4.55e-05, "INCLINATION": 0.0321, "RA_OF_ASC_NODE": 73.2547, "ARG_OF_PERICENTER": 90.5993, "MEAN_ANOMALY": 7.0538, "EPHEMERIS_TYPE": 0, "CLASSIFICATION_TYPE": "U", "NORAD_CAT_ID": 44333, "ELEMENT_SET_NO": 999, "REV_AT_EPOCH": 2367, "BSTAR": 0, "MEAN_MOTION_DOT": -9.7e-07, "MEAN_MOTION_DDOT": 0}, "tle": {"line1": "1 44333U 19034A   25337.55313634 -.00000097  00000+0  00000+0 0  9999", "line2": "2 44333   0.0321  73.2547 0000455  90.5993   7.0538  1.00268492 23675"}}, "geometry": {"type": "Point", "coordinates": [29.317552965516605, 0.007245222787381612]}}]}